[
    {
        "Altitude(m)": 607897.6120862754,
        "Argument of Periapsis(deg)": 0.0,
        "Eccentricity": 0.0,
        "Inclination(deg)": 60.0,
        "Latitude(deg)": -14.292920148769456,
        "Longitude(deg)": 146.61873706304982,
        "Mean Anomaly(deg)": -16.363599999999984,
        "RAAN(deg)": 255.0,
        "Satellite Name": "Test1 1143",
        "Satellite Number": 1143,
        "Semi-Major Axis(m)": 6980739.136638005,
        "Time(s)": 0
    },
    {
        "Altitude(m)": 607750.8135212675,
        "Argument of Periapsis(deg)": 0.00010418945913296404,
        "Eccentricity": 0.0,
        "Inclination(deg)": 60.0,
        "Latitude(deg)": -13.758761907468278,
        "Longitude(deg)": 146.9058066741705,
        "Mean Anomaly(deg)": -15.743493854538132,
        "RAAN(deg)": 254.99957995086027,
        "Satellite Name": "Test1 1143",
        "Satellite Number": 1143,
        "Semi-Major Axis(m)": 6980739.136638005,
        "Time(s)": 10
    }
]